NORAD_CAT_ID,OBJECT_NAME,OBJECT_TYPE,EPOCH,MEAN_MOTION,ECCENTRICITY,INCLINATION,RA_OF_ASC_NODE,ARG_OF_PERICENTER,MEAN_ANOMALY,BSTAR,MEAN_MOTION_DOT,MEAN_MOTION_DDOT,TLE_LINE0,TLE_LINE1,TLE_LINE2,SEMIMAJOR_AXIS,PERIOD,APOGEE,PERIGEE,DECAYED
52634.0,STARLINK-3974,PAYLOAD,2022-07-15 14:00:01,15.45519978,0.0001236,53.2176,135.6198,77.6542,57.1341,-0.023874,-0.01055988,0.0,0 STARLINK-3974,1 52634U 22052AN  22196.58334491 -.01055988  00000-0 -23874-1 0  9991,2 52634  53.2176 135.6198 0001236  77.6542  57.1341 15.45519978  1301,6807.988,93.173,430.694,429.011,0.0
52634.0,STARLINK-3974,PAYLOAD,2022-07-15 20:00:01,15.44949975,0.0001190999999999,53.2177,134.4346,79.2132,7.0635,-0.024319,-0.01054853,0.0,0 STARLINK-3974,1 52634U 22052AN  22196.83334491 -.01054853  00000-0 -24319-1 0  9994,2 52634  53.2177 134.4346 0001191  79.2132   7.0635 15.44949975 10120,6809.6619999999975,93.207,432.338,430.716,0.0
52634.0,STARLINK-3974,PAYLOAD,2022-07-15 22:00:00,15.44760011,0.0001335,53.2178,134.0407,80.3034,109.6884,-0.02448,-0.01054956,0.0,0 STARLINK-3974,1 52634U 22052AN  22196.91667824 -.01054956  00000-0 -24480-1 0  9995,2 52634  53.2178 134.0407 0001335  80.3034 109.6884 15.44760011  1306,6810.22,93.218,432.994,431.176,0.0
52634.0,STARLINK-3974,PAYLOAD,2022-07-16 12:00:00,15.4343222,0.0001348,53.2175,131.2811,72.529,121.873,-0.025686,-0.01057551,0.0,0 STARLINK-3974,1 52634U 22052AN  22197.50001157 -.01057551  00000-0 -25686-1 0  9995,2 52634  53.2175 131.2811 0001348  72.5290 121.8730 15.43432220 10226,6814.126,93.299,436.909,435.072,0.0
52634.0,STARLINK-3974,PAYLOAD,2022-07-16 14:00:01,15.43242457,0.0001161,53.2176,130.8871,78.3094,219.3515,-0.025847,-0.01072126,0.0,0 STARLINK-3974,1 52634U 22052AN  22197.58334491 -.01072126  00000-0 -25847-1 0  9997,2 52634  53.2176 130.8871 0001161  78.3094 219.3515 15.43242457  1301,6814.684,93.31,437.34,435.758,0.0
52634.0,STARLINK-3974,PAYLOAD,2022-07-16 22:00:00,15.42483386,0.0001166,53.2178,129.3135,65.8389,284.2871,-0.026525,-0.0107232,0.0,0 STARLINK-3974,1 52634U 22052AN  22197.91667824 -.01072320  00000-0 -26525-1 0  9993,2 52634  53.2178 129.3135 0001166  65.8389 284.2871 15.42483386  1305,6816.92,93.356,439.58,437.99,0.0
52634.0,STARLINK-3974,PAYLOAD,2022-07-17 04:00:01,15.41913076,0.000128,53.2176,128.1356,66.7651,232.1748,-0.027004,-0.01071041,0.0,0 STARLINK-3974,1 52634U 22052AN  22198.16668981 -.01071041  00000-0 -27004-1 0  9998,2 52634  53.2176 128.1356 0001280  66.7651 232.1748 15.41913076 10324,6818.601,93.39,441.338,439.593,0.0
52634.0,STARLINK-3974,PAYLOAD,2022-07-17 14:00:01,15.40961756,0.0001177,53.2175,126.1707,72.6835,19.6372,-0.027798,-0.01068151,0.0,0 STARLINK-3974,1 52634U 22052AN  22198.58334491 -.01068151  00000-0 -27798-1 0  9998,2 52634  53.2175 126.1707 0001177  72.6835  19.6372 15.40961756  1302,6821.406999999997,93.448,444.074,442.469,0.0
52634.0,STARLINK-3974,PAYLOAD,2022-07-17 20:00:01,15.40392605,0.0001137,53.2176,124.9941,77.0646,322.6369,-0.028334,-0.01068257,0.0,0 STARLINK-3974,1 52634U 22052AN  22198.83334491 -.01068257  00000-0 -28334-1 0  9990,2 52634  53.2176 124.9941 0001137  77.0646 322.6369 15.40392605 10432,6823.087,93.483,445.728,444.176,0.0
52634.0,STARLINK-3974,PAYLOAD,2022-07-17 22:00:00,15.402033800000002,0.0001309,53.2177,124.6026,73.8188,68.2288,-0.028558,-0.01069849,0.0,0 STARLINK-3974,1 52634U 22052AN  22198.91667824 -.01069849  00000-0 -28558-1 0  9994,2 52634  53.2177 124.6026 0001309  73.8188  68.2288 15.40203380  1300,6823.646,93.494,446.404,444.617,0.0
52634.0,STARLINK-3974,PAYLOAD,2022-07-18 12:00:00,15.38874891,0.0001258,53.2175,121.862,84.8104,52.0644,-0.029859,-0.01070409,0.0,0 STARLINK-3974,1 52634U 22052AN  22199.50001157 -.01070409  00000-0 -29859-1 0  9990,2 52634  53.2175 121.8620 0001258  84.8104  52.0644 15.38874891 10530,6827.571999999999,93.575,450.296,448.578,0.0
52634.0,STARLINK-3974,PAYLOAD,2022-07-18 14:00:01,15.38683021,0.0001272,53.2175,121.4706,88.891,149.8746,-0.029944,-0.01066995,0.0,0 STARLINK-3974,1 52634U 22052AN  22199.58334491 -.01066995  00000-0 -29944-1 0  9998,2 52634  53.2175 121.4706 0001272  88.8910 149.8746 15.38683021  1302,6828.14,93.587,450.87300000000016,449.136,0.0
52634.0,STARLINK-3974,PAYLOAD,2022-07-18 22:00:00,15.37924267,0.0001230999999999,53.2175,119.9081,89.3269,196.4276,-0.030733,-0.01068069,0.0,0 STARLINK-3974,1 52634U 22052AN  22199.91667824 -.01068069  00000-0 -30733-1 0  9996,2 52634  53.2175 119.9081 0001231  89.3269 196.4276 15.37924267  1303,6830.385,93.633,453.091,451.41,0.0
52634.0,STARLINK-3974,PAYLOAD,2022-07-19 12:00:00,15.36597498,0.0001227,53.2175,117.1768,85.9325,189.8574,-0.032229,-0.01072279,0.0,0 STARLINK-3974,1 52634U 22052AN  22200.50001157 -.01072279  00000-0 -32229-1 0  9995,2 52634  53.2175 117.1768 0001227  85.9325 189.8574 15.36597498 10684,6834.316999999999,93.714,457.02,455.343,0.0
52634.0,STARLINK-3974,PAYLOAD,2022-07-19 14:00:01,15.36403859,0.0001065,53.2174,116.7867,80.9295,296.0675,-0.032229,-0.0106607,0.0,0 STARLINK-3974,1 52634U 22052AN  22200.58334491 -.01066070  00000-0 -32229-1 0  9995,2 52634  53.2174 116.7867 0001065  80.9295 296.0675 15.36403859  1308,6834.891,93.725,457.484,456.028,0.0
52634.0,STARLINK-3974,PAYLOAD,2022-07-19 22:00:00,15.35646652,0.000115,53.2175,115.2299,90.623,330.6241,-0.033141,-0.01069445,0.0,0 STARLINK-3974,1 52634U 22052AN  22200.91667824 -.01069445  00000-0 -33141-1 0  9994,2 52634  53.2175 115.2299 0001150  90.6230 330.6241 15.35646652  1307,6837.137,93.772,459.789,458.216,0.0
52634.0,STARLINK-3974,PAYLOAD,2022-07-20 12:00:00,15.34317044,0.0001200999999999,53.2175,112.5077,63.18899999999999,343.3032,-0.034564,-0.01068805,0.0,0 STARLINK-3974,1 52634U 22052AN  22201.50001157 -.01068805  00000-0 -34564-1 0  9990,2 52634  53.2175 112.5077 0001201  63.1890 343.3032 15.34317044 10842,6841.087,93.853,463.773,462.13,0.0
52634.0,STARLINK-3974,PAYLOAD,2022-07-20 14:00:01,15.34125315,0.0001348,53.2174,112.119,66.1138,80.9002,-0.0346589999999999,-0.01065517,0.0,0 STARLINK-3974,1 52634U 22052AN  22201.58334491 -.01065517  00000-0 -34659-1 0  9990,2 52634  53.2174 112.1190 0001348  66.1138  80.9002 15.34125315  1303,6841.656999999997,93.865,464.444,462.6,0.0
52634.0,STARLINK-3974,PAYLOAD,2022-07-20 22:00:01,15.33365685,0.0001438,53.2175,110.5676,66.9268,121.6642,-0.035492,-0.01065091,0.0,0 STARLINK-3974,1 52634U 22052AN  22201.91668981 -.01065091  00000-0 -35492-1 0  9994,2 52634  53.2175 110.5676 0001438  66.9268 121.6642 15.33365685  1305,6843.916,93.911,466.765,464.797,0.0
52634.0,STARLINK-3974,PAYLOAD,2022-07-21 06:00:00,15.32607027,0.0001301,53.2172,109.0181,90.1731,138.9539,-0.036377,-0.01065623,0.0,0 STARLINK-3974,1 52634U 22052AN  22202.25001157 -.01065623  00000-0 -36377-1 0  9992,2 52634  53.2172 109.0181 0001301  90.1731 138.9539 15.32607027 10954,6846.175,93.958,468.93,467.149,0.0
52634.0,STARLINK-3974,PAYLOAD,2022-07-21 14:00:01,15.31845841,0.0001252999999999,53.2174,107.4674,77.9092,190.9721,-0.0371779999999999,-0.01063422,0.0,0 STARLINK-3974,1 52634U 22052AN  22202.58335648 -.01063422  00000-0 -37178-1 0  9998,2 52634  53.2174 107.4674 0001253  77.9092 190.9721 15.31845841  1301,6848.441999999999,94.004,471.165,469.449,0.0
52634.0,STARLINK-3974,PAYLOAD,2022-07-21 22:00:00,15.31087689,0.0001245,53.2174,105.9217,74.8551,232.7366,-0.038141,-0.01065144,0.0,0 STARLINK-3974,1 52634U 22052AN  22202.91667824 -.01065144  00000-0 -38141-1 0  9993,2 52634  53.2174 105.9217 0001245  74.8551 232.7366 15.31087689  1302,6850.703,94.051,473.421,471.715,0.0
52634.0,STARLINK-3974,PAYLOAD,2022-07-22 04:00:00,15.30515164,0.0001306,53.2175,104.7636,85.4405,160.6346,-0.038635,-0.01060238,0.0,0 STARLINK-3974,1 52634U 22052AN  22203.16667824 -.01060238  00000-0 -38635-1 0  9998,2 52634  53.2175 104.7636 0001306  85.4405 160.6346 15.30515164 11096,6852.411,94.086,475.171,473.381,0.0
52634.0,STARLINK-3974,PAYLOAD,2022-07-22 06:00:00,15.30329468,0.0001105,53.2173,104.3772,83.7095,261.7442,-0.039109,-0.01066451,0.0,0 STARLINK-3974,1 52634U 22052AN  22203.25001157 -.01066451  00000-0 -39109-1 0  9999,2 52634  53.2173 104.3772 0001105  83.7095 261.7442 15.30329468  1307,6852.965999999999,94.097,475.588,474.073,0.0
52634.0,STARLINK-3974,PAYLOAD,2022-07-22 20:00:01,15.28999668,0.0001233,53.2176,101.6764,73.0561,246.4629,-0.0407379999999999,-0.01065997,0.0,0 STARLINK-3974,1 52634U 22052AN  22203.83334491 -.01065997  00000-0 -40738-1 0  9997,2 52634  53.2176 101.6764 0001233  73.0561 246.4629 15.28999668 11190,6856.938,94.179,479.649,477.958,0.0
52634.0,STARLINK-3974,PAYLOAD,2022-07-22 22:00:00,15.28810036,0.0001291,53.2175,101.2919,63.1608,355.2817,-0.041005,-0.01066666,0.0,0 STARLINK-3974,1 52634U 22052AN  22203.91667824 -.01066666  00000-0 -41005-1 0  9997,2 52634  53.2175 101.2919 0001291  63.1608 355.2817 15.28810036  1304,6857.505,94.191,480.256,478.485,0.0
52634.0,STARLINK-3974,PAYLOAD,2022-07-23 12:00:00,15.2747944,0.0001104,53.2175,98.5974,85.9172,303.3965,-0.042622,-0.01064418,0.0,0 STARLINK-3974,1 52634U 22052AN  22204.50001157 -.01064418  00000-0 -42622-1 0  9993,2 52634  53.2175  98.5974 0001104  85.9172 303.3965 15.27479440 11302,6861.486999999999,94.273,484.11,482.595,0.0
52634.0,STARLINK-3974,PAYLOAD,2022-07-23 14:00:01,15.27290368,0.0001276,53.2173,98.2127,83.4255,44.4194,-0.04294,-0.01066058,0.0,0 STARLINK-3974,1 52634U 22052AN  22204.58335648 -.01066058  00000-0 -42940-1 0  9991,2 52634  53.2173  98.2127 0001276  83.4255  44.4194 15.27290368  1308,6862.053000000001,94.285,484.794,483.043,0.0
52634.0,STARLINK-3974,PAYLOAD,2022-07-23 22:00:00,15.26529343,0.0001539,53.2175,96.678,58.2838,102.7968,-0.043818,-0.01063181,0.0,0 STARLINK-3974,1 52634U 22052AN  22204.91667824 -.01063181  00000-0 -43818-1 0  9991,2 52634  53.2175  96.6780 0001539  58.2838 102.7968 15.26529343  1300,6864.334,94.332,487.255,485.143,0.0
